"Quaoar:50000 Quaoar:2002 LM60" "Sol"
{
	Class	"dwarfplanet"
	Texture	"icy.*"
	Color	[ 0.362 0.319 0.271 ]
	BlendTexture	true
	SemiAxes	[ 583.3 555.3 510.0 ]  # occultation shape model
	Mass<kg>	1.21227e21  # constrained fit
	OrbitFrame
	{
		EclipticJ2000	{ Center "SSB" }
	}
	EllipticalOrbit  # primary body solution
	{
		Epoch	2451545.0  # 2000 Jan 01 12:00
		Period	285.0867252438612
		SemiMajorAxis	43.33511791963463
		Eccentricity	0.03694047272837633
		Inclination	7.990872665933034
		AscendingNode	188.9141632759559
		ArgOfPericenter	157.5485109164584
		MeanAnomaly	265.1494956186123
	}

	# Ring pole from Proudfoot et al. (2025), Planet. Sci. J. 6, 146
	#   "Constraints on Quaoar's Rings and Atmosphere from JWST/NIRCam
	#   Observations of a Stellar Occultation"
	#   https://ui.adsabs.harvard.edu/abs/2025PSJ.....6..146P/abstract
	BodyFrame	{ EquatorJ2000 {} }
	UniformRotation
	{
		Epoch	2459800.7744  # 2022 Aug 09 06:34 UT
		Period	17.6999  # Table 34 (1 σ)
		Inclination	35.0
		AscendingNode	349.5
		MeridianAngle	-2  # Table 34 (1 σ)
	}

	# Radii and widths from Pereira et al. (2023), A&A 673, 14
	#   "The two rings of (50000) Quaoar"
	#   https://ui.adsabs.harvard.edu/abs/2023A%26A...673L...4P/abstract
	#   https://ui.adsabs.harvard.edu/abs/2024A%26A...683C...4P/abstract
	Rings
	{
		Inner	2515
		Outer	4098
		Texture	"quaoar-rings.*"
	}
	LunarLambert	1
	# GeomAlbedo	0.124
	Reflectivity	0.070  # for phase integral = 0.562 +0.020 -0.059
	InfoURL	"https://en.wikipedia.org/wiki/Quaoar"
}

# Proudfoot et al. (2025), ApJL 993, L38
#   "Orbital Characterization of a Newly Discovered Small Satellite around Quaoar"
#   https://iopscience.iop.org/article/10.3847/2041-8213/ae1585
"Quaoar's second moon" "Sol/Quaoar"  # no provisional designation
{
	Class	"moon"
	Mesh	"asteroid.cms"
	Texture	"asteroid.*"
	Color	[ 0.389 0.361 0.347 ]  # assume same as Weywot
	BlendTexture	true
	Radius	19
	EllipticalOrbit
	{
		Period	3.6
		SemiMajorAxis	5838
		Inclination	2
		AscendingNode	110  # align to Laplace plane
	}
	UniformRotation  # to match orbit
	{
		Inclination	2
		AscendingNode	110
	}
	LunarLambert	1
	GeomAlbedo	0.04  # assume same as Weywot
	InfoURL	"https://en.wikipedia.org/wiki/Quaoar#Second_moon"
}

# Color derived from HST photometry measured by domi9, ItzImcool and Luna
#   https://www.stsci.edu/hst-program-info/program/?program=11169
"Weywot:Quaoar I:50000 Quaoar I" "Sol/Quaoar"
{
	Class	"moon"
	Mesh	"asteroid.cms"
	Texture	"asteroid.*"
	Color	[ 0.389 0.361 0.347 ]  # 2008-08-10 + 2008-08-15, c0f average
	BlendTexture	true
	Radius	82.5
	OrbitFrame	{ EclipticJ2000 {} }
	EllipticalOrbit  # constrained fit
	{
		Epoch	2454000.0  # 2006 Sept 21 12:00 UT
		Period	12.42727
		SemiMajorAxis	13329
		Eccentricity	0.0111
		Inclination	13.62
		ArgOfPericenter	97
		AscendingNode	353.3
		MeanAnomaly	79
	}
	BodyFrame	{ EclipticJ2000 {} }
	UniformRotation  # to match orbit
	{
		Epoch	2454000.0  # 2006 Sept 21 12:00 UT
		Inclination	13.62
		AscendingNode	353.3
		MeridianAngle	356
	}
	LunarLambert	1
	GeomAlbedo	0.04  # Fernández-Valenzuela et al. (2023), 2023DPS....5520204F
	InfoURL	"https://en.wikipedia.org/wiki/Weywot_(moon)"
}

# Mass and MK2's orbit from Bamberger (2025)
#   "A preliminary orbit for the satellite of dwarf planet (136472) Makemake"
#   https://arxiv.org/abs/2509.05880
"Makemake:136472 Makemake:2005 FY9" "Sol"
{
	Class	"dwarfplanet"
	Texture	"icy.*"
	Color	[ 0.921 0.893 0.828 ]
	BlendTexture	true
	SemiAxes	[ 717 717 710 ]  # Brown (2013), 2013ApJ...767L...7B
	Mass<kg>	2.69e21
	OrbitFrame
	{
		EclipticJ2000	{ Center "SSB" }
	}
	EllipticalOrbit
	{
		Epoch	2451545.0  # 2000 Jan 01 12:00
		Period	306.7031483189599
		SemiMajorAxis	45.49889074848782
		Eccentricity	0.1603866059337173
		Inclination	29.001993091243
		AscendingNode	79.44279066059018
		ArgOfPericenter	296.0687622301867
		MeanAnomaly	140.1043006005143
	}
	UniformRotation  # assume alignment with moon orbit
	{
		Period	22.8266  # Hromakina et al. (2019), 2019A&A...625A..46H
		Inclination	82
		AscendingNode	15
	}
	LunarLambert	0.5
	# GeomAlbedo	0.82
	Reflectivity	0.62  # Bond albedo
	InfoURL	"https://en.wikipedia.org/wiki/Makemake"
}

# Size and albedo from Kiss et al. (2024), ApJL 976, L9
#   "Prominent Mid-infrared Excess of the Dwarf Planet (136472) Makemake
#   Discovered by JWST/MIRI Indicates Ongoing Activity"
#   https://ui.adsabs.harvard.edu/abs/2024ApJ...976L...9K/abstract
# Color derived from HST photometry measured by domi9, ItzImcool and Luna
#   https://www.stsci.edu/hst-program-info/program/?program=15207
"S 2015 (136472) 1:MK2" "Sol/Makemake"
{
	Class	"moon"
	Mesh	"asteroid.cms"
	Texture	"asteroid.*"
	Color	[ 0.342 0.331 0.324 ]  # 2018-03-07 + 2018-03-18; drc file
	BlendTexture	true
	Radius	89.5
	OrbitFrame	{ EclipticJ2000 {} }
	EllipticalOrbit
	{
		Epoch	2457140.0744  # 2015 Apr 27 13:46 UT
		Period	18.023
		SemiMajorAxis	22250
		Inclination	82  # 83.7° on the sky plane
		AscendingNode	15  # ~13° on the sky plane
		MeanAnomaly	66  # close to maximum elongation at discovery epoch
	}
	BodyFrame	{ EclipticJ2000 {} }
	UniformRotation  # to match orbit
	{
		Epoch	2457140.0744  # 2015 Apr 27 13:46 UT
		Inclination	82
		AscendingNode	15
		MeridianAngle	246
	}
	LunarLambert	1
	GeomAlbedo	0.04
	InfoURL	"https://en.wikipedia.org/wiki/S/2015_(136472)_1"
}

# Kiss et al. (2019), Icarus 334, 3
#   "The mass and density of the dwarf planet (225088) 2007 OR10"
#   https://ui.adsabs.harvard.edu/abs/2019Icar..334....3K/abstract
"Gonggong:225088 Gonggong:2007 OR10" "Sol"
{
	Class	"dwarfplanet"
	Texture	"icy.*"
	Color	[ 0.531 0.444 0.311 ]
	BlendTexture	true
	Radius	615
	Mass<kg>	1.75e21
	OrbitFrame
	{
		EclipticJ2000	{ Center "SSB" }
	}
	EllipticalOrbit
	{
		Epoch	2451545.0  # 2000 Jan 01 12:00
		Period	548.8820241583734
		SemiMajorAxis	67.06686274245513
		Eccentricity	0.5034169656629447
		Inclination	30.80270792355379
		AscendingNode	336.8395047941726
		ArgOfPericenter	206.9913021996599
		MeanAnomaly	93.64998094826905
	}
	BodyFrame	{ EquatorJ2000 {} }
	UniformRotation  # assume alignment with moon orbit
	{
		Period	22.40
		Inclination	83.08
		AscendingNode	31.99
	}
	LunarLambert	1
	GeomAlbedo	0.14
	InfoURL	"https://en.wikipedia.org/wiki/Gonggong_(dwarf_planet)"
}

# Radius and rotation from Arakawa et al. (2021), AJ 162, no. 6, 226
#   "Tidal Evolution of the Eccentric Moon around Dwarf Planet (225088) Gonggong"
#   https://ui.adsabs.harvard.edu/abs/2021AJ....162..226A/abstract
#   (Geometric albedo is calculated using this radius.)
